[{"OBJECT_NAME":"ONEWEB-0550","OBJECT_ID":"2023-043G","EPOCH":"2026-03-09T21:57:05.057568","MEAN_MOTION":13.21824485,"ECCENTRICITY":0.00015227,"INCLINATION":87.9163,"RA_OF_ASC_NODE":263.7739,"ARG_OF_PERICENTER":91.4615,"MEAN_ANOMALY":268.6693,"EPHEMERIS_TYPE":0,"CLASSIFICATION_TYPE":"U","NORAD_CAT_ID":56052,"ELEMENT_SET_NO":999,"REV_AT_EPOCH":14511,"BSTAR":-0.00010988424,"MEAN_MOTION_DOT":-3.2e-7,"MEAN_MOTION_DDOT":0},{"OBJECT_NAME":"THORAD AGENA D DEB","OBJECT_ID":"1970-025GJ","EPOCH":"2026-03-09T13:35:30.531840","MEAN_MOTION":13.5228893,"ECCENTRICITY":0.02062932,"INCLINATION":99.4156,"RA_OF_ASC_NODE":281.076,"ARG_OF_PERICENTER":32.1723,"MEAN_ANOMALY":22.9514,"EPHEMERIS_TYPE":0,"CLASSIFICATION_TYPE":"U","NORAD_CAT_ID":4948,"ELEMENT_SET_NO":999,"REV_AT_EPOCH":72494,"BSTAR":0.0014144168,"MEAN_MOTION_DOT":1.025e-5,"MEAN_MOTION_DDOT":0}]
